1 20436U 90005A   97038.47900217 -.00000044  00000-0  00000-0 0  3135
2 20436  98.7403 114.9116 0001532  61.6847 298.4484 14.20021744365237
1 20436U 90005A   97038.83130769 -.00000044  00000-0  00000-0 0  3233
2 20436  98.7403 115.2595 0001532  61.0655 299.0674 14.20021751365284
1 20436U 90005A   97039.18361298 -.00000044  00000-0  00000-0 0  3482
2 20436  98.7403 115.6078 0001500  60.6988 299.4338 14.20021776365337
1 20436U 90005A   97039.25407409 -.00000044  00000-0  00000+0 0  1853
2 20436  98.7403 115.6774 0001500  60.4962 299.6364 14.20021776365342
1 20436U 90005A   97039.46545734 -.00000044  00000-0  00000-0 0  1985
2 20436  98.7402 115.8862 0001502  60.8516 299.2811 14.20021788365371
1 20436U 90005A   97039.81776256 -.00000044  00000-0  00000-0 0  1912
2 20436  98.7401 116.2338 0001518  58.6187 301.5138 14.20021970365427
1 20436U 90005A   97039.81776278 -.00000044  00000-0  00000+0 0  1869
2 20436  98.7401 116.2338 0001523  58.6293 301.5045 14.20021974365422
1 20436U 90005A   97040.17006790 -.00000044  00000-0  00000-0 0  2115
2 20436  98.7400 116.5817 0001498  57.7697 302.3625 14.20021995365476
1 20436U 90005A   97040.45191208 -.00000044  00000-0  00000-0 0  2238
2 20436  98.7400 116.8602 0001496  58.6440 301.4883 14.20022035365512
1 20436U 90005A   97040.80421748 -.00000044  00000-0  00000-0 0  2412
2 20436  98.7399 117.2080 0001491  58.4358 301.6965 14.20022057365567
1 20436U 90005A   97041.22698385 -.00000044  00000-0  00000-0 0  2692
2 20436  98.7398 117.6256 0001459  57.6543 302.4773 14.20022080365625
1 20436U 90005A   97041.57928926 -.00000044  00000-0  00000-0 0  2787
2 20436  98.7398 117.9735 0001464  57.6757 302.4562 14.20022100365677
1 20436U 90005A   97041.93159476 -.00000044  00000-0  00000-0 0  2929
2 20436  98.7397 118.3211 0001456  57.0612 303.0705 14.20022098365723
1 20436U 90005A   97042.14297793 -.00000044  00000-0  00000-0 0  3031
2 20436  98.7396 118.5300 0001439  56.4288 303.7026 14.20022113365750
1 20436U 90005A   97042.49528328 -.00000044  00000-0  00000-0 0  3209
2 20436  98.7395 118.8779 0001439  56.0877 304.0437 14.20022136365803
1 20436U 90005A   97042.77712760 -.00000044  00000-0  00000-0 0  3328
2 20436  98.7395 119.1561 0001435  56.2992 303.8323 14.20022147365849
1 20436U 90005A   97042.84758868 -.00000044  00000-0  00000+0 0  1872
2 20436  98.7394 119.2257 0001430  56.2536 303.8777 14.20022146365853
1 20436U 90005A   97043.19989400 -.00000044  00000-0  00000-0 0  2039
2 20436  98.7394 119.5737 0001408  55.1010 305.0299 14.20022164365908
1 20436U 90005A   97043.48173831 -.00000044  00000-0  00000-0 0  2157
2 20436  98.7394 119.8522 0001413  56.6621 303.4697 14.20022181365940
1 20436U 90005A   97043.83404356 -.00000044  00000-0  00000-0 0  2302
2 20436  98.7393 120.1999 0001408  56.1054 304.0256 14.20022200365996
1 20436U 90005A   97044.18634877 -.00000044  00000-0  00000-0 0  2506
2 20436  98.7393 120.5478 0001375  54.7797 305.3509 14.20022231366049
1 20436U 90005A   97044.60911482 -.00000044  00000-0  00000-0 0  2659
2 20436  98.7392 120.9656 0001384  58.0614 302.0697 14.20022282366100
1 20436U 90005A   97044.82049805 -.00000044  00000-0  00000-0 0  2788
2 20436  98.7391 121.1742 0001374  56.4290 303.7017 14.20022292366137
1 20436U 90005A   97045.17280329 -.00000044  00000-0  00000-0 0  2943
2 20436  98.7391 121.5221 0001345  54.8602 305.2703 14.20022320366186
1 20436U 90005A   97045.52510862 -.00000044  00000-0  00000-0 0  3075
2 20436  98.7390 121.8700 0001338  53.9247 306.2054 14.20022328366231
1 20436U 90005A   97045.87741368 -.00000044  00000-0  00000+0 0  1886
2 20436  98.7389 122.2179 0001289  54.3067 305.8230 14.20022362366288
1 20436U 90005A   97045.87741368 -.00000044  00000-0  00000-0 0  3227
2 20436  98.7389 122.2178 0001290  54.0722 306.0574 14.20022362366288
1 20436U 90005A   97046.15925788 -.00000044  00000-0  00000-0 0  2015
2 20436  98.7389 122.4962 0001273  53.7463 306.3831 14.20022373366326
1 20436U 90005A   97046.51156327 -.00000044  00000-0  00000-0 0  2144
2 20436  98.7389 122.8441 0001270  52.9341 307.1951 14.20022377366376
1 20436U 90005A   97046.86386858 -.00000044  00000-0  00000-0 0  2326
2 20436  98.7388 123.1919 0001267  54.2761 305.8533 14.20022389366426
1 20436U 90005A   97047.14571213 -.00000044  00000-0  00000-0 0  2532
2 20436  98.7388 123.4703 0001256  53.5482 306.5810 14.20022717366465
1 20436U 90005A   97047.49801722 -.00000044  00000-0  00000-0 0  2687
2 20436  98.7388 123.8183 0001252  53.5589 306.5703 14.20022757366516
1 20436U 90005A   97047.85032255 -.00000044  00000-0  00000-0 0  2909
2 20436  98.7386 124.1658 0001244  54.7884 305.3407 14.20022753366566
1 20436U 90005A   97048.13216662 -.00000044  00000-0  00000-0 0  3054
2 20436  98.7386 124.4440 0001218  53.8834 306.2456 14.20022784366607
1 20436U 90005A   97048.48447189 -.00000044  00000-0  00000-0 0  3164
2 20436  98.7386 124.7919 0001212  53.0188 307.1099 14.20022791366655
1 20436U 90005A   97048.83677724 -.00000044  00000-0  00000-0 0  3321
2 20436  98.7385 125.1395 0001205  52.1051 308.0234 14.20022791366705
1 20436U 90005A   97048.90723831 -.00000044  00000-0  00000+0 0  1899
2 20436  98.7385 125.2091 0001205  51.9686 308.1599 14.20022790366715
1 20436U 90005A   97049.18908241 -.00000044  00000-0  00000-0 0  2072
2 20436  98.7385 125.4874 0001190  50.8397 309.2885 14.20022810366753
1 20436U 90005A   97049.47092655 -.00000044  00000-0  00000-0 0  2202
2 20436  98.7385 125.7657 0001207  52.2673 307.8620 14.20022849366794
1 20436U 90005A   97049.82323162 -.00000044  00000-0  00000-0 0  2335
2 20436  98.7384 126.1135 0001204  53.5617 306.5670 14.20022860366848
1 20436U 90005A   97050.17553679 -.00000044  00000-0  00000-0 0  2513
2 20436  98.7384 126.4614 0001185  52.2848 307.8436 14.20022877366890
1 20436U 90005A   97050.52784202 -.00000044  00000-0  00000-0 0  2611
2 20436  98.7384 126.8093 0001178  52.4499 307.6786 14.20022886366943
1 20436U 90005A   97050.80968618 -.00000044  00000-0  00000-0 0  2729
2 20436  98.7383 127.0875 0001173  53.3806 306.7478 14.20022892366989
1 20436U 90005A   97051.16199127 -.00000044  00000-0  00000-0 0  2876
2 20436  98.7383 127.4355 0001144  52.6132 307.5149 14.20022911367031
1 20436U 90005A   97051.51429603 -.00000044  00000-0  00000-0 0  3006
2 20436  98.7384 127.7838 0001175  59.1913 300.9384 14.20022968367089
1 20436U 90005A   97051.86660059 -.00000044  00000-0  00000-0 0  3129
2 20436  98.7373 128.1305 0001160  49.8860 310.2417 14.20023269367134
1 20436U 90005A   97052.14844475 -.00000044  00000-0  00000-0 0  3262
2 20436  98.7373 128.4088 0001145  49.4715 310.6561 14.20023269367171
1 20436U 90005A   97052.21890580 -.00000044  00000-0  00000+0 0  1906
2 20436  98.7372 128.4784 0001145  49.3143 310.8132 14.20023268367183
1 20436U 90005A   97052.50075002 -.00000044  00000-0  00000-0 0  1981
2 20436  98.7372 128.7566 0001148  48.3282 311.7993 14.20023265367227
1 20436U 90005A   97052.78259428 -.00000044  00000-0  00000-0 0  2067
2 20436  98.7372 129.0348 0001143  46.6201 313.5070 14.20023251367261
1 20436U 90005A   97052.92351641 -.00000044  00000-0  00000+0 0  1915
2 20436  98.7370 129.1741 0001177  44.8873 315.2402 14.20023279367289
1 20436U 90005A   97053.20536049 -.00000044  00000-0  00000-0 0  2051
2 20436  98.7370 129.4524 0001167  44.2994 315.8276 14.20023283367323
1 20436U 90005A   97053.41674360 -.00000044  00000-0  00000-0 0  2187
2 20436  98.7370 129.6611 0001163  43.7254 316.4015 14.20023287367356
1 20436U 90005A   97053.83950963 -.00000044  00000-0  00000-0 0  2336
2 20436  98.7368 130.0782 0001129  46.4185 313.7085 14.20023386367417
1 20436U 90005A   97054.19181480 -.00000044  00000-0  00000-0 0  2505
2 20436  98.7368 130.4261 0001114  46.0909 314.0359 14.20023383367467
1 20436U 90005A   97054.40319790 -.00000044  00000-0  00000-0 0  2540
2 20436  98.7368 130.6350 0001091  46.4570 313.6702 14.20023393367491
1 20436U 90005A   97054.82596397 -.00000044  00000-0  00000-0 0  2647
2 20436  98.7367 131.0521 0001079  47.4210 312.7057 14.20023402367554
1 20436U 90005A   97055.17826910 -.00000044  00000-0  00000-0 0  2700
2 20436  98.7368 131.4001 0001072  47.2661 312.8606 14.20023408367606
1 20436U 90005A   97055.53057409 -.00000044  00000-0  00000-0 0  2776
2 20436  98.7368 131.7479 0001053  46.6336 313.4931 14.20023443367651
1 20436U 90005A   97055.81241820 -.00000044  00000-0  00000-0 0  2836
2 20436  98.7367 132.0261 0001052  45.6242 314.5019 14.20023439367695
1 20436U 90005A   97056.16472312 -.00000044  00000-0  00000-0 0  2950
2 20436  98.7367 132.3740 0001028  44.1442 315.9817 14.20023472367743
1 20436U 90005A   97056.23518410 -.00000044  00000-0  00000+0 0  1923
2 20436  98.7367 132.4436 0001024  43.8825 316.2433 14.20023481367752
1 20436U 90005A   97056.44656719 -.00000044  00000-0  00000-0 0  1977
2 20436  98.7367 132.6523 0001024  43.2354 316.8903 14.20023483367785
1 20436U 90005A   97056.79887227 -.00000044  00000-0  00000-0 0  2178
2 20436  98.7365 132.9999 0001009  44.2618 315.8639 14.20023498367837
1 20436U 90005A   97057.15117730 -.00000044  00000-0  00000-0 0  2354
2 20436  98.7365 133.3478 0000979  43.9575 316.1680 14.20023505367881
1 20436U 90005A   97057.43302139 -.00000044  00000-0  00000-0 0  2455
2 20436  98.7365 133.6261 0000978  45.1725 314.9535 14.20023519367929
1 20436U 90005A   97057.85578756 -.00000044  00000-0  00000-0 0  2585
2 20436  98.7364 134.0432 0000971  43.8843 316.2410 14.20023516367982
1 20436U 90005A   97058.20809255 -.00000044  00000-0  00000-0 0  2799
2 20436  98.7364 134.3912 0000949  42.7989 317.3262 14.20023533368035
1 20436U 90005A   97058.48993629 -.00000044  00000-0  00000-0 0  2934
2 20436  98.7369 134.6701 0000927  50.2916 309.8342 14.20023638368074
1 20436U 90005A   97058.84224134 -.00000044  00000-0  00000-0 0  3157
2 20436  98.7367 135.0176 0000919  50.4274 309.6982 14.20023648368128
1 20436U 90005A   97059.19454632 -.00000044  00000-0  00000-0 0  3389
2 20436  98.7366 135.3655 0000902  48.9163 311.2091 14.20023672368175
